start=new Date('2022-12-10T00:00:00.000Z').valueOf();
sats=[{"MEAN_MOTION":"15.06382830","ELEMENT_SET_NO":"999","COUNTRY_CODE":"US","CENTER_NAME":"EARTH","MEAN_ELEMENT_THEORY":"SGP4","DECAY_DATE":null,"ARG_OF_PERICENTER":"77.8626","MEAN_MOTION_DOT":"-0.00000128","OBJECT_NAME":"STARLINK-1623","MEAN_MOTION_DDOT":"0.0000000000000","RA_OF_ASC_NODE":"204.0087","NORAD_CAT_ID":"46129","OBJECT_TYPE":"PAYLOAD","INCLINATION":"53.0553","REF_FRAME":"TEME","OBJECT_ID":"2020-057N","REV_AT_EPOCH":"12776","PERIAPSIS":"545.984","GP_ID":"219839777","SEMIMAJOR_AXIS":"6925.401","SITE":"AFETR","PERIOD":"95.593","TIME_SYSTEM":"UTC","CLASSIFICATION_TYPE":"U","ECCENTRICITY":"0.00018520","EPHEMERIS_TYPE":"0","MEAN_ANOMALY":"282.2570","LAUNCH_DATE":"2020-08-18","TLE_LINE2":"2 46129  53.0553 204.0087 0001852  77.8626 282.2570 15.06382830127763","BSTAR":"0.00001030500000","FILE":"3685263","RCS_SIZE":"LARGE","EPOCH":"2022-12-08T23:19:09.778080","TLE_LINE1":"1 46129U 20057N   22342.97164095 -.00000128  00000-0  10305-4 0  9995","APOAPSIS":"548.549"},{"CLASSIFICATION_TYPE":"U","ECCENTRICITY":"0.00014100","EPHEMERIS_TYPE":"0","TIME_SYSTEM":"UTC","PERIOD":"95.594","SITE":"AFETR","SEMIMAJOR_AXIS":"6925.416","GP_ID":"219845879","APOAPSIS":"548.257","TLE_LINE1":"1 46130U 20057P   22343.80099998 -.00000097  00000-0  12379-4 0  9997","EPOCH":"2022-12-09T19:13:26.398272","FILE":"3685306","RCS_SIZE":"LARGE","TLE_LINE2":"2 46130  53.0554 200.2770 0001410  52.2731 307.8385 15.06378112128540","BSTAR":"0.00001237900000","LAUNCH_DATE":"2020-08-18","MEAN_ANOMALY":"307.8385","RA_OF_ASC_NODE":"200.2770","MEAN_MOTION_DDOT":"0.0000000000000","OBJECT_TYPE":"PAYLOAD","NORAD_CAT_ID":"46130","OBJECT_NAME":"STARLINK-1624","MEAN_MOTION_DOT":"-0.00000097","ARG_OF_PERICENTER":"52.2731","DECAY_DATE":null,"COUNTRY_CODE":"US","CENTER_NAME":"EARTH","MEAN_ELEMENT_THEORY":"SGP4","MEAN_MOTION":"15.06378112","ELEMENT_SET_NO":"999","PERIAPSIS":"546.304","REV_AT_EPOCH":"12854","OBJECT_ID":"2020-057P","INCLINATION":"53.0554","REF_FRAME":"TEME"},{"RA_OF_ASC_NODE":"220.2192","MEAN_MOTION_DDOT":"0.0000000000000","NORAD_CAT_ID":"46131","OBJECT_TYPE":"PAYLOAD","OBJECT_NAME":"STARLINK-1625","MEAN_MOTION_DOT":"-0.00008164","DECAY_DATE":null,"ARG_OF_PERICENTER":"57.8277","COUNTRY_CODE":"US","CENTER_NAME":"EARTH","MEAN_ELEMENT_THEORY":"SGP4","MEAN_MOTION":"15.06376388","ELEMENT_SET_NO":"999","PERIAPSIS":"546.401","REV_AT_EPOCH":"12826","OBJECT_ID":"2020-057Q","INCLINATION":"53.0541","REF_FRAME":"TEME","CLASSIFICATION_TYPE":"U","ECCENTRICITY":"0.00012780","EPHEMERIS_TYPE":"0","TIME_SYSTEM":"UTC","PERIOD":"95.594","SITE":"AFETR","GP_ID":"219846166","SEMIMAJOR_AXIS":"6925.421","EPOCH":"2022-12-09T19:31:59.016000","TLE_LINE1":"1 46131U 20057Q   22343.81387750 -.00008164  00000-0 -53012-3 0  9997","APOAPSIS":"548.171","FILE":"3685306","RCS_SIZE":"LARGE","BSTAR":"-0.00053012000000","TLE_LINE2":"2 46131  53.0541 220.2192 0001278  57.8277 302.2836 15.06376388128267","LAUNCH_DATE":"2020-08-18","MEAN_ANOMALY":"302.2836"},{"MEAN_ANOMALY":"300.6934","RCS_SIZE":"LARGE","FILE":"3685263","APOAPSIS":"548.441","TLE_LINE1":"1 46132U 20057R   22343.12274957  .00003919  00000-0  28183-3 0  9998","EPOCH":"2022-12-09T02:56:45.562848","LAUNCH_DATE":"2020-08-18","BSTAR":"0.00028183000000","TLE_LINE2":"2 46132  53.0533 243.3300 0001797  59.4232 300.6934 15.06405411128486","SITE":"AFETR","GP_ID":"219839528","SEMIMAJOR_AXIS":"6925.332","TIME_SYSTEM":"UTC","EPHEMERIS_TYPE":"0","ECCENTRICITY":"0.00017970","CLASSIFICATION_TYPE":"U","PERIOD":"95.592","REF_FRAME":"TEME","INCLINATION":"53.0533","REV_AT_EPOCH":"12848","PERIAPSIS":"545.952","OBJECT_ID":"2020-057R","ARG_OF_PERICENTER":"59.4232","DECAY_DATE":null,"MEAN_MOTION_DOT":"0.00003919","MEAN_MOTION":"15.06405411","ELEMENT_SET_NO":"999","MEAN_ELEMENT_THEORY":"SGP4","COUNTRY_CODE":"US","CENTER_NAME":"EARTH","NORAD_CAT_ID":"46132","OBJECT_TYPE":"PAYLOAD","MEAN_MOTION_DDOT":"0.0000000000000","RA_OF_ASC_NODE":"243.3300","OBJECT_NAME":"STARLINK-1630"},{"GP_ID":"219845951","SEMIMAJOR_AXIS":"6925.410","SITE":"AFETR","PERIOD":"95.593","EPHEMERIS_TYPE":"0","ECCENTRICITY":"0.00015420","CLASSIFICATION_TYPE":"U","TIME_SYSTEM":"UTC","MEAN_ANOMALY":"298.5687","TLE_LINE2":"2 46133  53.0556 200.3635 0001542  61.5457 298.5687 15.06379855128546","BSTAR":"-0.00006085900000","LAUNCH_DATE":"2020-08-18","EPOCH":"2022-12-09T18:52:11.870400","TLE_LINE1":"1 46133U 20057S   22343.78624850 -.00001187  00000-0 -60859-4 0  9996","APOAPSIS":"548.343","RCS_SIZE":"LARGE","FILE":"3685310","MEAN_ELEMENT_THEORY":"SGP4","CENTER_NAME":"EARTH","COUNTRY_CODE":"US","ELEMENT_SET_NO":"999","MEAN_MOTION":"15.06379855","MEAN_MOTION_DOT":"-0.00001187","ARG_OF_PERICENTER":"61.5457","DECAY_DATE":null,"OBJECT_NAME":"STARLINK-1637","NORAD_CAT_ID":"46133","OBJECT_TYPE":"PAYLOAD","MEAN_MOTION_DDOT":"0.0000000000000","RA_OF_ASC_NODE":"200.3635","REF_FRAME":"TEME","INCLINATION":"53.0556","OBJECT_ID":"2020-057S","PERIAPSIS":"546.207","REV_AT_EPOCH":"12854"},{"INCLINATION":"53.0531","REF_FRAME":"TEME","OBJECT_ID":"2020-057T","REV_AT_EPOCH":"12854","PERIAPSIS":"546.283","ELEMENT_SET_NO":"999","MEAN_MOTION":"15.06398958","COUNTRY_CODE":"US","CENTER_NAME":"EARTH","MEAN_ELEMENT_THEORY":"SGP4","ARG_OF_PERICENTER":"72.7925","DECAY_DATE":null,"MEAN_MOTION_DOT":"0.00000437","OBJECT_NAME":"STARLINK-1638","RA_OF_ASC_NODE":"200.3372","MEAN_MOTION_DDOT":"0.0000000000000","NORAD_CAT_ID":"46134","OBJECT_TYPE":"PAYLOAD","MEAN_ANOMALY":"287.3211","LAUNCH_DATE":"2020-08-18","TLE_LINE2":"2 46134  53.0531 200.3372 0001348  72.7925 287.3211 15.06398958128540","BSTAR":"0.00004820500000","FILE":"3685483","RCS_SIZE":"LARGE","EPOCH":"2022-12-09T18:56:07.309536","TLE_LINE1":"1 46134U 20057T   22343.78897349  .00000437  00000-0  48205-4 0  9998","APOAPSIS":"548.150","GP_ID":"219849245","SEMIMAJOR_AXIS":"6925.352","SITE":"AFETR","PERIOD":"95.592","TIME_SYSTEM":"UTC","CLASSIFICATION_TYPE":"U","ECCENTRICITY":"0.00013480","EPHEMERIS_TYPE":"0"},{"OBJECT_NAME":"STARLINK-1639","RA_OF_ASC_NODE":"200.2736","MEAN_MOTION_DDOT":"0.0000000000000","NORAD_CAT_ID":"46135","OBJECT_TYPE":"PAYLOAD","MEAN_MOTION":"15.06390107","ELEMENT_SET_NO":"999","CENTER_NAME":"EARTH","COUNTRY_CODE":"US","MEAN_ELEMENT_THEORY":"SGP4","DECAY_DATE":null,"ARG_OF_PERICENTER":"90.5101","MEAN_MOTION_DOT":"0.00000806","OBJECT_ID":"2020-057U","REV_AT_EPOCH":"12854","PERIAPSIS":"546.204","INCLINATION":"53.0557","REF_FRAME":"TEME","PERIOD":"95.593","TIME_SYSTEM":"UTC","CLASSIFICATION_TYPE":"U","ECCENTRICITY":"0.00015020","EPHEMERIS_TYPE":"0","SEMIMAJOR_AXIS":"6925.379","GP_ID":"219846236","SITE":"AFETR","LAUNCH_DATE":"2020-08-18","TLE_LINE2":"2 46135  53.0557 200.2736 0001502  90.5101 269.6060 15.06390107128541","BSTAR":"0.00007298800000","FILE":"3685311","RCS_SIZE":"LARGE","TLE_LINE1":"1 46135U 20057U   22343.80466796  .00000806  00000-0  72988-4 0  9995","APOAPSIS":"548.284","EPOCH":"2022-12-09T19:18:43.311744","MEAN_ANOMALY":"269.6060"},{"OBJECT_NAME":"STARLINK-1643","OBJECT_TYPE":"PAYLOAD","NORAD_CAT_ID":"46136","MEAN_MOTION_DDOT":"0.0000000000000","RA_OF_ASC_NODE":"233.3059","MEAN_ELEMENT_THEORY":"SGP4","CENTER_NAME":"EARTH","COUNTRY_CODE":"US","ELEMENT_SET_NO":"999","MEAN_MOTION":"15.06407592","MEAN_MOTION_DOT":"0.00004423","ARG_OF_PERICENTER":"57.6738","DECAY_DATE":null,"OBJECT_ID":"2020-057V","PERIAPSIS":"545.897","REV_AT_EPOCH":"12736","REF_FRAME":"TEME","INCLINATION":"53.0556","PERIOD":"95.592","EPHEMERIS_TYPE":"0","ECCENTRICITY":"0.00018670","CLASSIFICATION_TYPE":"U","TIME_SYSTEM":"UTC","GP_ID":"219839028","SEMIMAJOR_AXIS":"6925.325","SITE":"AFETR","TLE_LINE2":"2 46136  53.0556 233.3059 0001867  57.6738 302.4431 15.06407592127364","BSTAR":"0.00031555000000","LAUNCH_DATE":"2020-08-18","APOAPSIS":"548.483","TLE_LINE1":"1 46136U 20057V   22343.12271963  .00004423  00000-0  31555-3 0  9994","EPOCH":"2022-12-09T02:56:42.976032","RCS_SIZE":"LARGE","FILE":"3685263","MEAN_ANOMALY":"302.4431"},{"NORAD_CAT_ID":"46137","OBJECT_TYPE":"PAYLOAD","MEAN_MOTION_DDOT":"0.0000000000000","RA_OF_ASC_NODE":"220.2665","OBJECT_NAME":"STARLINK-1586","DECAY_DATE":null,"ARG_OF_PERICENTER":"47.2124","MEAN_MOTION_DOT":"-0.00003228","MEAN_MOTION":"15.06366199","ELEMENT_SET_NO":"999","MEAN_ELEMENT_THEORY":"SGP4","CENTER_NAME":"EARTH","COUNTRY_CODE":"US","REV_AT_EPOCH":"12827","PERIAPSIS":"545.563","OBJECT_ID":"2020-057W","REF_FRAME":"TEME","INCLINATION":"53.0540","TIME_SYSTEM":"UTC","EPHEMERIS_TYPE":"0","ECCENTRICITY":"0.00025330","CLASSIFICATION_TYPE":"U","PERIOD":"95.594","SITE":"AFETR","SEMIMAJOR_AXIS":"6925.452","GP_ID":"219860089","RCS_SIZE":"LARGE","FILE":"3685924","EPOCH":"2022-12-09T19:21:23.932800","TLE_LINE1":"1 46137U 20057W   22343.80652700 -.00003228  00000-0 -19805-3 0  9990","APOAPSIS":"549.071","LAUNCH_DATE":"2020-08-18","BSTAR":"-0.00019805000000","TLE_LINE2":"2 46137  53.0540 220.2665 0002533  47.2124 312.9077 15.06366199128271","MEAN_ANOMALY":"312.9077"},{"INCLINATION":"53.0545","REF_FRAME":"TEME","PERIAPSIS":"546.097","REV_AT_EPOCH":"12722","OBJECT_ID":"2020-057X","MEAN_MOTION_DOT":"0.00004451","ARG_OF_PERICENTER":"60.8235","DECAY_DATE":null,"COUNTRY_CODE":"US","CENTER_NAME":"EARTH","MEAN_ELEMENT_THEORY":"SGP4","ELEMENT_SET_NO":"999","MEAN_MOTION":"15.06416323","MEAN_MOTION_DDOT":"0.0000000000000","RA_OF_ASC_NODE":"243.2539","NORAD_CAT_ID":"46138","OBJECT_TYPE":"PAYLOAD","OBJECT_NAME":"STARLINK-1590","MEAN_ANOMALY":"299.2908","TLE_LINE1":"1 46138U 20057X   22343.14116210  .00004451  00000-0  31735-3 0  9992","EPOCH":"2022-12-09T03:23:16.405440","APOAPSIS":"548.230","FILE":"3685263","RCS_SIZE":"LARGE","TLE_LINE2":"2 46138  53.0545 243.2539 0001540  60.8235 299.2908 15.06416323127222","BSTAR":"0.00031735000000","LAUNCH_DATE":"2020-08-18","SITE":"AFETR","SEMIMAJOR_AXIS":"6925.299","GP_ID":"219838528","ECCENTRICITY":"0.00015400","CLASSIFICATION_TYPE":"U","EPHEMERIS_TYPE":"0","TIME_SYSTEM":"UTC","PERIOD":"95.591"}];
